ONEWEB-0414             
1 50491U 21132Y   24175.38462742  .00000023  00000+0  24905-4 0  9991
2 50491  87.9144 119.5427 0002224  90.1428 269.9959 13.18685347126236
ONEWEB-0417             
1 50492U 21132Z   24175.84779670  .00000027  00000+0  35710-4 0  9994
2 50492  87.9152 119.4539 0001799  84.2360 275.8977 13.18688413127564
ONEWEB-0418             
1 50493U 21132AA  24175.85714722  .00000054  00000+0  10428-3 0  9991
2 50493  87.9145 119.4547 0001615  87.1941 272.9376 13.18685305127614
ONEWEB-0419             
1 50494U 21132AB  24175.34351327 -.00000242  00000+0 -64654-3 0  9995
2 50494  87.9144 119.5738 0001808  74.9013 285.2319 13.18685079126188
ONEWEB-0420             
1 50495U 21132AC  24175.31033596  .00000030  00000+0  44366-4 0  9990
2 50495  87.9144 119.5894 0002406  79.0021 281.1382 13.18684464126173
ONEWEB-0421             
1 50496U 21132AD  24175.83516091 -.00000010  00000+0 -58718-4 0  9990
2 50496  87.9152 119.4517 0002318  89.3700 270.7698 13.18685443127582
ONEWEB-0424             
1 50497U 21132AE  24175.86991275  .00000045  00000+0  80368-4 0  9997
2 50497  87.9147 119.4504 0001747  68.9817 291.1501 13.18688703127593
ONEWEB-0426             
1 50498U 21132AF  24175.83199458  .00000036  00000+0  59464-4 0  9991
2 50498  87.9143 119.4747 0001903 100.3167 259.8179 13.18685583127542
